0 CBERS 1 DEB
1 31592U 99057PP  13282.19692765  .00020166  00000-0  44381-2 0  6209
2 31592 098.2272 265.3820 0015178 022.8759 337.3113 14.57397707343868
0 CBERS 1 DEB
1 31592U 99057PP  13282.74617199  .00014341  00000-0  31607-2 0  6214
2 31592 098.2272 265.9248 0015131 021.2530 338.9294 14.57415306343949
0 CBERS 1 DEB
1 31592U 99057PP  13283.70734648  .00013206  00000-0  29073-2 0  6213
2 31592 098.2270 266.8735 0015400 016.9249 343.2952 14.57435974344084
0 CBERS 1 DEB
1 31592U 99057PP  13283.77599018  .00017318  00000-0  38113-2 0  6224
2 31592 098.2272 266.9425 0015017 018.4399 341.7341 14.57436958344099
0 CBERS 1 DEB
1 31592U 99057PP  13285.76692504  .00012928  00000-0  28469-2 0  6246
2 31592 098.2268 268.9103 0014829 012.9661 347.1916 14.57483900344389
0 CBERS 1 DEB
1 31592U 99057PP  13286.79669326  .00013665  00000-0  30069-2 0  6255
2 31592 098.2265 269.9282 0014731 010.0865 350.0626 14.57504829344534
0 CBERS 1 DEB
1 31592U 99057PP  13288.16968989  .00022560  00000-0  49463-2 0  6268
2 31592 098.2264 271.2853 0014529 006.1882 353.9494 14.57549232344737
0 CBERS 1 DEB
1 31592U 99057PP  13289.19940706  .00018002  00000-0  39492-2 0  6277
2 31592 098.2264 272.3030 0014414 003.2481 356.8808 14.57579694344884
0 CBERS 1 DEB
1 31592U 99057PP  13291.19013528  .00016167  00000-0  35443-2 0  6286
2 31592 098.2269 274.2706 0014174 357.4185 002.6938 14.57638484345174
0 CBERS 1 DEB
1 31592U 99057PP  13292.76893204  .00016083  00000-0  35226-2 0  6294
2 31592 098.2275 275.8312 0013971 352.8922 007.2076 14.57685248345403
0 CBERS 1 DEB
1 31592U 99057PP  13294.14175792  .00018035  00000-0  39448-2 0  6304
2 31592 098.2280 277.1884 0013779 348.7557 011.3332 14.57721911345603
0 CBERS 1 DEB
1 31592U 99057PP  13295.17135426  .00019593  00000-0  42810-2 0  6316
2 31592 098.2283 278.2063 0013633 345.7431 014.3381 14.57751790345755
